CCSDS_OMM_VERS = 2.0
CREATION_DATE  = 
ORIGINATOR     = 

OBJECT_NAME    = ISS OBJECT XY
OBJECT_ID      = 1998-067XY
CENTER_NAME    = EARTH
REF_FRAME      = TEME
TIME_SYSTEM    = UTC
MEAN_ELEMENT_THEORY = SGP/SGP4

EPOCH          = 2026-03-12T04:50:05.936640
MEAN_MOTION    = 15.64208185
ECCENTRICITY   = .00033066
INCLINATION    = 51.6274
RA_OF_ASC_NODE = 54.4268
ARG_OF_PERICENTER = 103.5482
MEAN_ANOMALY   = 256.5881

EPHEMERIS_TYPE = 0
CLASSIFICATION_TYPE = U
NORAD_CAT_ID   = 66912
ELEMENT_SET_NO = 999
REV_AT_EPOCH   = 1554
BSTAR          = .1045182E-2
MEAN_MOTION_DOT = .102225E-2
MEAN_MOTION_DDOT = 0

CCSDS_OMM_VERS = 2.0
CREATION_DATE  = 
ORIGINATOR     = 

OBJECT_NAME    = KNACKSAT-2
OBJECT_ID      = 1998-067XZ
CENTER_NAME    = EARTH
REF_FRAME      = TEME
TIME_SYSTEM    = UTC
MEAN_ELEMENT_THEORY = SGP/SGP4

EPOCH          = 2026-03-12T05:44:04.244928
MEAN_MOTION    = 15.52051154
ECCENTRICITY   = .0009518
INCLINATION    = 51.6313
RA_OF_ASC_NODE = 59.1802
ARG_OF_PERICENTER = 194.9856
MEAN_ANOMALY   = 165.0853

EPHEMERIS_TYPE = 0
CLASSIFICATION_TYPE = U
NORAD_CAT_ID   = 67683
ELEMENT_SET_NO = 999
REV_AT_EPOCH   = 518
BSTAR          = .70562442E-3
MEAN_MOTION_DOT = .43165E-3
MEAN_MOTION_DDOT = 0

CCSDS_OMM_VERS = 2.0
CREATION_DATE  = 
ORIGINATOR     = 

OBJECT_NAME    = GXIBA-1
OBJECT_ID      = 1998-067YA
CENTER_NAME    = EARTH
REF_FRAME      = TEME
TIME_SYSTEM    = UTC
MEAN_ELEMENT_THEORY = SGP/SGP4

EPOCH          = 2026-03-12T03:26:06.837216
MEAN_MOTION    = 15.54753471
ECCENTRICITY   = .00112542
INCLINATION    = 51.6306
RA_OF_ASC_NODE = 59.2916
ARG_OF_PERICENTER = 184.0724
MEAN_ANOMALY   = 176.0177

EPHEMERIS_TYPE = 0
CLASSIFICATION_TYPE = U
NORAD_CAT_ID   = 67684
ELEMENT_SET_NO = 999
REV_AT_EPOCH   = 517
BSTAR          = .12130385E-2
MEAN_MOTION_DOT = .82736E-3
MEAN_MOTION_DDOT = 0

CCSDS_OMM_VERS = 2.0
CREATION_DATE  = 
ORIGINATOR     = 

OBJECT_NAME    = CORAL
OBJECT_ID      = 1998-067YB
CENTER_NAME    = EARTH
REF_FRAME      = TEME
TIME_SYSTEM    = UTC
MEAN_ELEMENT_THEORY = SGP/SGP4

EPOCH          = 2026-03-12T05:36:47.816064
MEAN_MOTION    = 15.52443441
ECCENTRICITY   = .00114226
INCLINATION    = 51.6309
RA_OF_ASC_NODE = 59.1474
ARG_OF_PERICENTER = 191.5004
MEAN_ANOMALY   = 168.5727

EPHEMERIS_TYPE = 0
CLASSIFICATION_TYPE = U
NORAD_CAT_ID   = 67685
ELEMENT_SET_NO = 999
REV_AT_EPOCH   = 518
BSTAR          = .79090047E-3
MEAN_MOTION_DOT = .49209E-3
MEAN_MOTION_DDOT = 0

CCSDS_OMM_VERS = 2.0
CREATION_DATE  = 
ORIGINATOR     = 

OBJECT_NAME    = ISS OBJECT YC
OBJECT_ID      = 1998-067YC
CENTER_NAME    = EARTH
REF_FRAME      = TEME
TIME_SYSTEM    = UTC
MEAN_ELEMENT_THEORY = SGP/SGP4

EPOCH          = 2026-03-12T05:27:31.037184
MEAN_MOTION    = 15.53034287
ECCENTRICITY   = .00081467
INCLINATION    = 51.6316
RA_OF_ASC_NODE = 59.1062
ARG_OF_PERICENTER = 159.4103
MEAN_ANOMALY   = 200.7217

EPHEMERIS_TYPE = 0
CLASSIFICATION_TYPE = U
NORAD_CAT_ID   = 67686
ELEMENT_SET_NO = 999
REV_AT_EPOCH   = 518
BSTAR          = .92196639E-3
MEAN_MOTION_DOT = .58683E-3
MEAN_MOTION_DDOT = 0

CCSDS_OMM_VERS = 2.0
CREATION_DATE  = 
ORIGINATOR     = 

OBJECT_NAME    = LEOPARD
OBJECT_ID      = 1998-067YD
CENTER_NAME    = EARTH
REF_FRAME      = TEME
TIME_SYSTEM    = UTC
MEAN_ELEMENT_THEORY = SGP/SGP4

EPOCH          = 2026-03-12T05:40:16.274208
MEAN_MOTION    = 15.52242324
ECCENTRICITY   = .00080171
INCLINATION    = 51.6323
RA_OF_ASC_NODE = 59.1654
ARG_OF_PERICENTER = 163.4161
MEAN_ANOMALY   = 196.7093

EPHEMERIS_TYPE = 0
CLASSIFICATION_TYPE = U
NORAD_CAT_ID   = 67687
ELEMENT_SET_NO = 999
REV_AT_EPOCH   = 510
BSTAR          = .74707296E-3
MEAN_MOTION_DOT = .46038E-3
MEAN_MOTION_DDOT = 0

CCSDS_OMM_VERS = 2.0
CREATION_DATE  = 
ORIGINATOR     = 

OBJECT_NAME    = ISS OBJECT YE
OBJECT_ID      = 1998-067YE
CENTER_NAME    = EARTH
REF_FRAME      = TEME
TIME_SYSTEM    = UTC
MEAN_ELEMENT_THEORY = SGP/SGP4

EPOCH          = 2026-03-12T05:31:43.783104
MEAN_MOTION    = 15.52760084
ECCENTRICITY   = .00080001
INCLINATION    = 51.6315
RA_OF_ASC_NODE = 59.1259
ARG_OF_PERICENTER = 160.3071
MEAN_ANOMALY   = 199.8229

EPHEMERIS_TYPE = 0
CLASSIFICATION_TYPE = U
NORAD_CAT_ID   = 67688
ELEMENT_SET_NO = 999
REV_AT_EPOCH   = 510
BSTAR          = .8749604E-3
MEAN_MOTION_DOT = .55087E-3
MEAN_MOTION_DDOT = 0

CCSDS_OMM_VERS = 2.0
CREATION_DATE  = 
ORIGINATOR     = 

OBJECT_NAME    = CREW DRAGON 12
OBJECT_ID      = 2026-031A
CENTER_NAME    = EARTH
REF_FRAME      = TEME
TIME_SYSTEM    = UTC
MEAN_ELEMENT_THEORY = SGP/SGP4

EPOCH          = 2026-03-12T03:49:12.417600
MEAN_MOTION    = 15.48595269
ECCENTRICITY   = .00079841
INCLINATION    = 51.6325
RA_OF_ASC_NODE = 60.1463
ARG_OF_PERICENTER = 183.4136
MEAN_ANOMALY   = 176.6799

EPHEMERIS_TYPE = 0
CLASSIFICATION_TYPE = U
NORAD_CAT_ID   = 67796
ELEMENT_SET_NO = 999
REV_AT_EPOCH   = 55661
BSTAR          = .17667487E-3
MEAN_MOTION_DOT = .9166E-4
MEAN_MOTION_DDOT = 0

